[
  {
    "COMMENT": "GENERATED VIA SPACETRACK.ORG API",
    "ORIGINATOR": "18 SPCS",
    "NORAD_CAT_ID": "36508",
    "OBJECT_NAME": "CRYOSAT 2",
    "OBJECT_TYPE": "PAYLOAD",
    "CLASSIFICATION_TYPE": "U",
    "INTLDES": "10013A",
    "EPOCH": "2023-05-18 21:26:52",
    "EPOCH_MICROSECONDS": "377792",
    "MEAN_MOTION": "14.51903372",
    "ECCENTRICITY": "0.0004276",
    "INCLINATION": "92.0229",
    "RA_OF_ASC_NODE": "5.3332",
    "ARG_OF_PERICENTER": "153.6123",
    "MEAN_ANOMALY": "206.5303",
    "EPHEMERIS_TYPE": "0",
    "ELEMENT_SET_NO": "999",
    "REV_AT_EPOCH": "69480",
    "BSTAR": "0.000062537",
    "MEAN_MOTION_DOT": "0.00000255",
    "MEAN_MOTION_DDOT": "0",
    "FILE": "3911388",
    "TLE_LINE0": "0 CRYOSAT 2",
    "TLE_LINE1": "1 36508U 10013A   23138.89366178  .00000255  00000-0  62537-4 0  9991",
    "TLE_LINE2": "2 36508  92.0229   5.3332 0004276 153.6123 206.5303 14.51903372694805",
    "OBJECT_ID": "2010-013A",
    "OBJECT_NUMBER": "36508",
    "SEMIMAJOR_AXIS": "7097.576",
    "PERIOD": "99.180",
    "APOGEE": "722.476",
    "PERIGEE": "716.406",
    "DECAYED": "0"
  },
  {
    "COMMENT": "GENERATED VIA SPACETRACK.ORG API",
    "ORIGINATOR": "18 SPCS",
    "NORAD_CAT_ID": "36508",
    "OBJECT_NAME": "CRYOSAT 2",
    "OBJECT_TYPE": "PAYLOAD",
    "CLASSIFICATION_TYPE": "U",
    "INTLDES": "10013A",
    "EPOCH": "2023-05-19 04:03:51",
    "EPOCH_MICROSECONDS": "134976",
    "MEAN_MOTION": "14.51903553",
    "ECCENTRICITY": "0.000431",
    "INCLINATION": "92.0229",
    "RA_OF_ASC_NODE": "5.3997",
    "ARG_OF_PERICENTER": "152.9445",
    "MEAN_ANOMALY": "207.1988",
    "EPHEMERIS_TYPE": "0",
    "ELEMENT_SET_NO": "999",
    "REV_AT_EPOCH": "69488",
    "BSTAR": "0.000063503",
    "MEAN_MOTION_DOT": "0.00000259",
    "MEAN_MOTION_DDOT": "0",
    "FILE": "3911655",
    "TLE_LINE0": "0 CRYOSAT 2",
    "TLE_LINE1": "1 36508U 10013A   23139.16934184  .00000259  00000-0  63503-4 0  9998",
    "TLE_LINE2": "2 36508  92.0229   5.3997 0004310 152.9445 207.1988 14.51903553694885",
    "OBJECT_ID": "2010-013A",
    "OBJECT_NUMBER": "36508",
    "SEMIMAJOR_AXIS": "7097.575",
    "PERIOD": "99.180",
    "APOGEE": "722.499",
    "PERIGEE": "716.381",
    "DECAYED": "0"
  },
  {
    "COMMENT": "GENERATED VIA SPACETRACK.ORG API",
    "ORIGINATOR": "18 SPCS",
    "NORAD_CAT_ID": "36508",
    "OBJECT_NAME": "CRYOSAT 2",
    "OBJECT_TYPE": "PAYLOAD",
    "CLASSIFICATION_TYPE": "U",
    "INTLDES": "10013A",
    "EPOCH": "2023-05-19 22:15:32",
    "EPOCH_MICROSECONDS": "698656",
    "MEAN_MOTION": "14.51903971",
    "ECCENTRICITY": "0.0004412",
    "INCLINATION": "92.0227",
    "RA_OF_ASC_NODE": "5.5828",
    "ARG_OF_PERICENTER": "151.0485",
    "MEAN_ANOMALY": "209.0968",
    "EPHEMERIS_TYPE": "0",
    "ELEMENT_SET_NO": "999",
    "REV_AT_EPOCH": "69495",
    "BSTAR": "0.000061354",
    "MEAN_MOTION_DOT": "0.0000025",
    "MEAN_MOTION_DDOT": "0",
    "FILE": "3912278",
    "TLE_LINE0": "0 CRYOSAT 2",
    "TLE_LINE1": "1 36508U 10013A   23139.92746179  .00000250  00000-0  61354-4 0  9990",
    "TLE_LINE2": "2 36508  92.0227   5.5828 0004412 151.0485 209.0968 14.51903971694956",
    "OBJECT_ID": "2010-013A",
    "OBJECT_NUMBER": "36508",
    "SEMIMAJOR_AXIS": "7097.574",
    "PERIOD": "99.180",
    "APOGEE": "722.570",
    "PERIGEE": "716.307",
    "DECAYED": "0"
  },
  {
    "COMMENT": "GENERATED VIA SPACETRACK.ORG API",
    "ORIGINATOR": "18 SPCS",
    "NORAD_CAT_ID": "36508",
    "OBJECT_NAME": "CRYOSAT 2",
    "OBJECT_TYPE": "PAYLOAD",
    "CLASSIFICATION_TYPE": "U",
    "INTLDES": "10013A",
    "EPOCH": "2023-05-20 04:52:31",
    "EPOCH_MICROSECONDS": "435968",
    "MEAN_MOTION": "14.51904382",
    "ECCENTRICITY": "0.0004448",
    "INCLINATION": "92.0227",
    "RA_OF_ASC_NODE": "5.6493",
    "ARG_OF_PERICENTER": "150.3372",
    "MEAN_ANOMALY": "209.8088",
    "EPHEMERIS_TYPE": "0",
    "ELEMENT_SET_NO": "999",
    "REV_AT_EPOCH": "69503",
    "BSTAR": "0.000071302",
    "MEAN_MOTION_DOT": "0.0000029",
    "MEAN_MOTION_DDOT": "0",
    "FILE": "3912589",
    "TLE_LINE0": "0 CRYOSAT 2",
    "TLE_LINE1": "1 36508U 10013A   23140.20314162  .00000290  00000-0  71302-4 0  9994",
    "TLE_LINE2": "2 36508  92.0227   5.6493 0004448 150.3372 209.8088 14.51904382695039",
    "OBJECT_ID": "2010-013A",
    "OBJECT_NUMBER": "36508",
    "SEMIMAJOR_AXIS": "7097.572",
    "PERIOD": "99.180",
    "APOGEE": "722.594",
    "PERIGEE": "716.280",
    "DECAYED": "0"
  },
  {
    "COMMENT": "GENERATED VIA SPACETRACK.ORG API",
    "ORIGINATOR": "18 SPCS",
    "NORAD_CAT_ID": "36508",
    "OBJECT_NAME": "CRYOSAT 2",
    "OBJECT_TYPE": "PAYLOAD",
    "CLASSIFICATION_TYPE": "U",
    "INTLDES": "10013A",
    "EPOCH": "2023-05-20 21:24:58",
    "EPOCH_MICROSECONDS": "277088",
    "MEAN_MOTION": "14.51904845",
    "ECCENTRICITY": "0.0004549",
    "INCLINATION": "92.0226",
    "RA_OF_ASC_NODE": "5.8157",
    "ARG_OF_PERICENTER": "148.6183",
    "MEAN_ANOMALY": "211.5297",
    "EPHEMERIS_TYPE": "0",
    "ELEMENT_SET_NO": "999",
    "REV_AT_EPOCH": "69509",
    "BSTAR": "0.000071156",
    "MEAN_MOTION_DOT": "0.0000029",
    "MEAN_MOTION_DDOT": "0",
    "FILE": "3913175",
    "TLE_LINE0": "0 CRYOSAT 2",
    "TLE_LINE1": "1 36508U 10013A   23140.89234117  .00000290  00000-0  71156-4 0  9997",
    "TLE_LINE2": "2 36508  92.0226   5.8157 0004549 148.6183 211.5297 14.51904845695091",
    "OBJECT_ID": "2010-013A",
    "OBJECT_NUMBER": "36508",
    "SEMIMAJOR_AXIS": "7097.571",
    "PERIOD": "99.180",
    "APOGEE": "722.665",
    "PERIGEE": "716.207",
    "DECAYED": "0"
  },
  {
    "COMMENT": "GENERATED VIA SPACETRACK.ORG API",
    "ORIGINATOR": "18 SPCS",
    "NORAD_CAT_ID": "36508",
    "OBJECT_NAME": "CRYOSAT 2",
    "OBJECT_TYPE": "PAYLOAD",
    "CLASSIFICATION_TYPE": "U",
    "INTLDES": "10013A",
    "EPOCH": "2023-05-21 08:59:41",
    "EPOCH_MICROSECONDS": "65440",
    "MEAN_MOTION": "14.51905092",
    "ECCENTRICITY": "0.0004608",
    "INCLINATION": "92.0225",
    "RA_OF_ASC_NODE": "5.9321",
    "ARG_OF_PERICENTER": "147.4262",
    "MEAN_ANOMALY": "212.723",
    "EPHEMERIS_TYPE": "0",
    "ELEMENT_SET_NO": "999",
    "REV_AT_EPOCH": "69520",
    "BSTAR": "0.00006934",
    "MEAN_MOTION_DOT": "0.00000282",
    "MEAN_MOTION_DDOT": "0",
    "FILE": "3913691",
    "TLE_LINE0": "0 CRYOSAT 2",
    "TLE_LINE1": "1 36508U 10013A   23141.37478085  .00000282  00000-0  69340-4 0  9998",
    "TLE_LINE2": "2 36508  92.0225   5.9321 0004608 147.4262 212.7230 14.51905092695203",
    "OBJECT_ID": "2010-013A",
    "OBJECT_NUMBER": "36508",
    "SEMIMAJOR_AXIS": "7097.570",
    "PERIOD": "99.180",
    "APOGEE": "722.706",
    "PERIGEE": "716.165",
    "DECAYED": "0"
  },
  {
    "COMMENT": "GENERATED VIA SPACETRACK.ORG API",
    "ORIGINATOR": "18 SPCS",
    "NORAD_CAT_ID": "36508",
    "OBJECT_NAME": "CRYOSAT 2",
    "OBJECT_TYPE": "PAYLOAD",
    "CLASSIFICATION_TYPE": "U",
    "INTLDES": "10013A",
    "EPOCH": "2023-05-21 13:57:25",
    "EPOCH_MICROSECONDS": "115616",
    "MEAN_MOTION": "14.51905156",
    "ECCENTRICITY": "0.0004631",
    "INCLINATION": "92.0224",
    "RA_OF_ASC_NODE": "5.982",
    "ARG_OF_PERICENTER": "146.932",
    "MEAN_ANOMALY": "213.2177",
    "EPHEMERIS_TYPE": "0",
    "ELEMENT_SET_NO": "999",
    "REV_AT_EPOCH": "69519",
    "BSTAR": "0.00006534",
    "MEAN_MOTION_DOT": "0.00000266",
    "MEAN_MOTION_DDOT": "0",
    "FILE": "3913738",
    "TLE_LINE0": "0 CRYOSAT 2",
    "TLE_LINE1": "1 36508U 10013A   23141.58154069  .00000266  00000-0  65340-4 0  9992",
    "TLE_LINE2": "2 36508  92.0224   5.9820 0004631 146.9320 213.2177 14.51905156695196",
    "OBJECT_ID": "2010-013A",
    "OBJECT_NUMBER": "36508",
    "SEMIMAJOR_AXIS": "7097.570",
    "PERIOD": "99.180",
    "APOGEE": "722.722",
    "PERIGEE": "716.148",
    "DECAYED": "0"
  },
  {
    "COMMENT": "GENERATED VIA SPACETRACK.ORG API",
    "ORIGINATOR": "18 SPCS",
    "NORAD_CAT_ID": "36508",
    "OBJECT_NAME": "CRYOSAT 2",
    "OBJECT_TYPE": "PAYLOAD",
    "CLASSIFICATION_TYPE": "U",
    "INTLDES": "10013A",
    "EPOCH": "2023-05-21 20:34:23",
    "EPOCH_MICROSECONDS": "839104",
    "MEAN_MOTION": "14.51905334",
    "ECCENTRICITY": "0.0004668",
    "INCLINATION": "92.0224",
    "RA_OF_ASC_NODE": "6.0486",
    "ARG_OF_PERICENTER": "146.276",
    "MEAN_ANOMALY": "213.8745",
    "EPHEMERIS_TYPE": "0",
    "ELEMENT_SET_NO": "999",
    "REV_AT_EPOCH": "69523",
    "BSTAR": "0.000065797",
    "MEAN_MOTION_DOT": "0.00000268",
    "MEAN_MOTION_DDOT": "0",
    "FILE": "3914061",
    "TLE_LINE0": "0 CRYOSAT 2",
    "TLE_LINE1": "1 36508U 10013A   23141.85722036  .00000268  00000-0  65797-4 0  9995",
    "TLE_LINE2": "2 36508  92.0224   6.0486 0004668 146.2760 213.8745 14.51905334695237",
    "OBJECT_ID": "2010-013A",
    "OBJECT_NUMBER": "36508",
    "SEMIMAJOR_AXIS": "7097.569",
    "PERIOD": "99.180",
    "APOGEE": "722.747",
    "PERIGEE": "716.121",
    "DECAYED": "0"
  },
  {
    "COMMENT": "GENERATED VIA SPACETRACK.ORG API",
    "ORIGINATOR": "18 SPCS",
    "NORAD_CAT_ID": "36508",
    "OBJECT_NAME": "CRYOSAT 2",
    "OBJECT_TYPE": "PAYLOAD",
    "CLASSIFICATION_TYPE": "U",
    "INTLDES": "10013A",
    "EPOCH": "2023-05-22 13:06:50",
    "EPOCH_MICROSECONDS": "648256",
    "MEAN_MOTION": "14.51905728",
    "ECCENTRICITY": "0.0004747",
    "INCLINATION": "92.0223",
    "RA_OF_ASC_NODE": "6.2149",
    "ARG_OF_PERICENTER": "144.6266",
    "MEAN_ANOMALY": "215.5256",
    "EPHEMERIS_TYPE": "0",
    "ELEMENT_SET_NO": "999",
    "REV_AT_EPOCH": "69537",
    "BSTAR": "0.000063836",
    "MEAN_MOTION_DOT": "0.0000026",
    "MEAN_MOTION_DDOT": "0",
    "FILE": "3914642",
    "TLE_LINE0": "0 CRYOSAT 2",
    "TLE_LINE1": "1 36508U 10013A   23142.54641954  .00000260  00000-0  63836-4 0  9995",
    "TLE_LINE2": "2 36508  92.0223   6.2149 0004747 144.6266 215.5256 14.51905728695373",
    "OBJECT_ID": "2010-013A",
    "OBJECT_NUMBER": "36508",
    "SEMIMAJOR_AXIS": "7097.568",
    "PERIOD": "99.180",
    "APOGEE": "722.802",
    "PERIGEE": "716.064",
    "DECAYED": "0"
  }
]